ONEWEB-0687             
1 61595U 24188B   25037.62234311  .00004649  00000+0  56148-3 0  9997
2 61595  86.5774 123.5519 0004471 166.5785 193.5558 14.83560227 19188
ONEWEB-0688             
1 61596U 24188C   25037.62560827  .00001434  00000+0  17098-3 0  9992
2 61596  86.5785 123.5730 0004016 164.5546 195.5801 14.83564698 19183
ONEWEB-0689             
1 61597U 24188D   25037.58334491 -.00696116  00000+0 -27042+0 0  9999
2 61597  86.9175 124.6907 0002173 156.7500 260.7961 14.32658692  5745
ONEWEB-0690             
1 61598U 24188E   25037.58334491 -.00475271  00000+0 -14254+0 0  9998
2 61598  86.9494 124.6922 0006668 173.4176  10.6601 14.45403735  5681
ONEWEB-0691             
1 61599U 24188F   25037.58334491 -.00672027  00000+0 -25246+0 0  9990
2 61599  86.9127 124.7375 0004719 170.7074 104.9048 14.34263671  5739
ONEWEB-0692             
1 61600U 24188G   25037.58334491 -.00649294  00000+0 -24905+0 0  9994
2 61600  86.9194 124.7350 0001786 178.4365 270.9804 14.33568767  5667
ONEWEB-0693             
1 61601U 24188H   25037.62601367 -.00003072  00000+0 -37693-3 0  9999
2 61601  86.5703 123.4686 0002285 149.6627 210.4729 14.83577667 19185
ONEWEB-0695             
1 61602U 24188J   25037.58334491 -.00726602  00000+0 -28036+0 0  9994
2 61602  86.9128 124.7330 0002280 149.5491 303.3486 14.33121601  5741
